0 DELTA 1 DEB
1 10768U 76077BR  13283.40390465 -.00000023  00000-0  20264-3 0  3455
2 10768 102.5519 246.3605 0073230 238.6438 277.2904 12.28097865667459
0 DELTA 1 DEB
1 10768U 76077BR  13285.43279684 -.00000040  00000-0  53705-4 0  3466
2 10768 102.5523 248.4040 0073172 235.0129 247.3673 12.28098246667706
0 DELTA 1 DEB
1 10768U 76077BR  13287.46925708 -.00000058  00000-0 -96294-4 0  3477
2 10768 102.5528 250.4553 0073136 231.3675 250.9076 12.28098266667954
0 DELTA 1 DEB
1 10768U 76077BR  13289.81966507 -.00000045  00000-0  10432-4 0  3486
2 10768 102.5535 252.8228 0073105 227.1506 202.4751 12.28098072668249
0 DELTA 1 DEB
1 10768U 76077BR  13292.83410204 -.00000008  00000-0  33178-3 0  3491
2 10768 102.5542 255.8594 0073025 221.7223 209.8518 12.28098190668617
0 DELTA 1 DEB
1 10768U 76077BR  13294.86754444 -.00000001  00000-0  39190-3 0  3508
2 10768 102.5544 257.9079 0072969 218.0636 200.0697 12.28098271668861
